$$SOE
2459580.500000000, A.D. 2022-Jan-01 00:00:00.0000, -4.798966103854269E+08, -1.287798785813462E+08, -9.860672769717574E+06,
2459587.500000000, A.D. 2022-Jan-08 00:00:00.0000, -4.778169270474599E+08, -1.370053503878531E+08, -1.046749905182415E+07,
2459594.500000000, A.D. 2022-Jan-15 00:00:00.0000, -4.755485520592475E+08, -1.451766962358098E+08, -1.107018937964252E+07,
2459601.500000000, A.D. 2022-Jan-22 00:00:00.0000, -4.730925552450822E+08, -1.532907436374162E+08, -1.166851018061510E+07,
2459608.500000000, A.D. 2022-Jan-29 00:00:00.0000, -4.704500205454154E+08, -1.613443276751450E+08, -1.226222852790224E+07,
2459615.500000000, A.D. 2022-Feb-05 00:00:00.0000, -4.676220486808005E+08, -1.693342899618399E+08, -1.285111186618048E+07,
2459622.500000000, A.D. 2022-Feb-12 00:00:00.0000, -4.646097577071753E+08, -1.772574786944445E+08, -1.343492802453066E+07,
2459629.500000000, A.D. 2022-Feb-19 00:00:00.0000, -4.614142827875582E+08, -1.851107474302246E+08, -1.401344520123255E+07,
2459636.500000000, A.D. 2022-Feb-26 00:00:00.0000, -4.580367764911144E+08, -1.928909533068166E+08, -1.458643185929354E+07,
2459643.500000000, A.D. 2022-Mar-05 00:00:00.0000, -4.544784094605556E+08, -2.005949553218133E+08, -1.515365659792362E+07,
2459650.500000000, A.D. 2022-Mar-12 00:00:00.0000, -4.507403712266539E+08, -2.082196127361914E+08, -1.571488802586700E+07,
2459657.500000000, A.D. 2022-Mar-19 00:00:00.0000, -4.468238710990630E+08, -2.157617835720123E+08, -1.626989464093724E+07,
2459664.500000000, A.D. 2022-Mar-26 00:00:00.0000, -4.427301391111477E+08, -2.232183232093889E+08, -1.681844471841492E+07,
2459671.500000000, A.D. 2022-Apr-02 00:00:00.0000, -4.384604269518217E+08, -2.305860831383874E+08, -1.736030621930510E+07,
2459678.500000000, A.D. 2022-Apr-09 00:00:00.0000, -4.340160086142941E+08, -2.378619098610921E+08, -1.789524674330641E+07,
2459685.500000000, A.D. 2022-Apr-16 00:00:00.0000, -4.293981804072132E+08, -2.450426432893375E+08, -1.842303350606659E+07,
2459692.500000000, A.D. 2022-Apr-23 00:00:00.0000, -4.246082615993761E+08, -2.521251135528645E+08, -1.894343313587496E+07,
2459699.500000000, A.D. 2022-Apr-30 00:00:00.0000, -4.196475975700848E+08, -2.591061384626048E+08, -1.945621130183908E+07,
2459706.500000000, A.D. 2022-May-07 00:00:00.0000, -4.145175624052405E+08, -2.659825236029414E+08, -1.996113261588661E+07,
2459713.500000000, A.D. 2022-May-14 00:00:00.0000, -4.092195595529864E+08, -2.727510620146199E+08, -2.045796068773466E+07,
2459720.500000000, A.D. 2022-May-21 00:00:00.0000, -4.037550225722858E+08, -2.794085327090943E+08, -2.094645808436112E+07,
2459727.500000000, A.D. 2022-May-28 00:00:00.0000, -3.981254164554150E+08, -2.859516989733182E+08, -2.142638622833718E+07,
2459734.500000000, A.D. 2022-Jun-04 00:00:00.0000, -3.923322392502947E+08, -2.923773067788825E+08, -2.189750528608555E+07,
2459741.500000000, A.D. 2022-Jun-11 00:00:00.0000, -3.863770238420065E+08, -2.986820832945670E+08, -2.235957405929247E+07,
2459748.500000000, A.D. 2022-Jun-18 00:00:00.0000, -3.802613398592671E+08, -3.048627354899954E+08, -2.281234988202694E+07,
2459755.500000000, A.D. 2022-Jun-25 00:00:00.0000, -3.739867956808971E+08, -3.109159488643759E+08, -2.325558852900082E+07,
2459762.500000000, A.D. 2022-Jul-02 00:00:00.0000, -3.675550404126908E+08, -3.168383863670075E+08, -2.368904415262830E+07,
2459769.500000000, A.D. 2022-Jul-09 00:00:00.0000, -3.609677654489686E+08, -3.226266873337983E+08, -2.411246927019095E+07,
2459776.500000000, A.D. 2022-Jul-16 00:00:00.0000, -3.542267056786121E+08, -3.282774653584129E+08, -2.452561470749806E+07,
2459783.500000000, A.D. 2022-Jul-23 00:00:00.0000, -3.473336425383939E+08, -3.337873050221123E+08, -2.492822929096931E+07,
2459790.500000000, A.D. 2022-Jul-30 00:00:00.0000, -3.402904088343494E+08, -3.391527608392488E+08, -2.532005956999470E+07,
2459797.500000000, A.D. 2022-Aug-06 00:00:00.0000, -3.330988917387837E+08, -3.443703577743901E+08, -2.570084984685734E+07,
2459804.500000000, A.D. 2022-Aug-13 00:00:00.0000, -3.257610347930014E+08, -3.494365905801809E+08, -2.607034221361835E+07,
2459811.500000000, A.D. 2022-Aug-20 00:00:00.0000, -3.182788404913803E+08, -3.543479224625205E+08, -2.642827649306998E+07,
2459818.500000000, A.D. 2022-Aug-27 00:00:00.0000, -3.106543733846596E+08, -3.591007838035254E+08, -2.677439014939719E+07,
2459825.500000000, A.D. 2022-Sep-03 00:00:00.0000, -3.028897634608908E+08, -3.636915710579427E+08, -2.710841820053867E+07,
2459832.500000000, A.D. 2022-Sep-10 00:00:00.0000, -2.949872097211453E+08, -3.681166458052943E+08, -2.743009313894184E+07,
2459839.500000000, A.D. 2022-Sep-17 00:00:00.0000, -2.869489839284899E+08, -3.723723339663084E+08, -2.773914486404906E+07,
2459846.500000000, A.D. 2022-Sep-24 00:00:00.0000, -2.787774344781036E+08, -3.764549252418425E+08, -2.803530063679850E+07,
2459853.500000000, A.D. 2022-Oct-01 00:00:00.0000, -2.704749901570747E+08, -3.803606728046018E+08, -2.831828508068466E+07,
2459860.500000000, A.D. 2022-Oct-08 00:00:00.0000, -2.620441633953827E+08, -3.840857927304202E+08, -2.858782022491580E+07,
2459867.500000000, A.D. 2022-Oct-15 00:00:00.0000, -2.534875539488765E+08, -3.876264619794225E+08, -2.884362540714601E+07,
2459874.500000000, A.D. 2022-Oct-22 00:00:00.0000, -2.448078552046678E+08, -3.909788166213550E+08, -2.908541697436804E+07,
2459881.500000000, A.D. 2022-Oct-29 00:00:00.0000, -2.360078606206239E+08, -3.941389529110624E+08, -2.931290822435206E+07,
2459888.500000000, A.D. 2022-Nov-05 00:00:00.0000, -2.270904682106698E+08, -3.971029284867828E+08, -2.952580955753964E+07,
2459895.500000000, A.D. 2022-Nov-12 00:00:00.0000, -2.180586850518911E+08, -3.998667624372941E+08, -2.972382855670705E+07,
2459902.500000000, A.D. 2022-Nov-19 00:00:00.0000, -2.089156325427184E+08, -4.024264352051973E+08, -2.990667000730997E+07,
2459909.500000000, A.D. 2022-Nov-26 00:00:00.0000, -1.996645521583959E+08, -4.047778887384537E+08, -3.007403591604432E+07,
2459916.500000000, A.D. 2022-Dec-03 00:00:00.0000, -1.903088115453445E+08, -4.069170269198682E+08, -3.022562554517344E+07,
2459923.500000000, A.D. 2022-Dec-10 00:00:00.0000, -1.808519109172500E+08, -4.088397162781085E+08, -3.036113546713448E+07,
2459930.500000000, A.D. 2022-Dec-17 00:00:00.0000, -1.712974897382425E+08, -4.105417870307174E+08, -3.048025964588714E+07,
2459937.500000000, A.D. 2022-Dec-24 00:00:00.0000, -1.616493335950592E+08, -4.120190345520675E+08, -3.058268956260702E+07,
2459944.500000000, A.D. 2022-Dec-31 00:00:00.0000, -1.519113809117844E+08, -4.132672211869276E+08, -3.066811441185221E+07,
2459951.500000000, A.D. 2023-Jan-07 00:00:00.0000, -1.420877293947159E+08, -4.142820774767518E+08, -3.073622130288866E+07,
2459958.500000000, A.D. 2023-Jan-14 00:00:00.0000, -1.321826441830454E+08, -4.150593023329270E+08, -3.078669524727601E+07,
2459965.500000000, A.D. 2023-Jan-21 00:00:00.0000, -1.222005683566055E+08, -4.155945653633654E+08, -3.081921913523465E+07,
2459972.500000000, A.D. 2023-Jan-28 00:00:00.0000, -1.121461321379412E+08, -4.158835115865754E+08, -3.083347405605432E+07,
2459979.500000000, A.D. 2023-Feb-04 00:00:00.0000, -1.020241610021333E+08, -4.159217655482984E+08, -3.082913969908044E+07,
2459986.500000000, A.D. 2023-Feb-11 00:00:00.0000, -9.183968449300116E+07, -4.157049350797182E+08, -3.080589468963191E+07,
2459993.500000000, A.D. 2023-Feb-18 00:00:00.0000, -8.159794581000021E+07, -4.152286155688667E+08, -3.076341692472437E+07,
2460000.500000000, A.D. 2023-Feb-25 00:00:00.0000, -7.130441190127066E+07, -4.144883949590208E+08, -3.070138394959149E+07,
2460007.500000000, A.D. 2023-Mar-04 00:00:00.0000, -6.096478395539710E+07, -4.134798595113516E+08, -3.061947338684466E+07,
2460014.500000000, A.D. 2023-Mar-11 00:00:00.0000, -5.058500825405024E+07, -4.121986003923430E+08, -3.051736342526478E+07,
2460021.500000000, A.D. 2023-Mar-18 00:00:00.0000, -4.017128732528286E+07, -4.106402212019028E+08, -3.039473338137901E+07,
2460028.500000000, A.D. 2023-Mar-25 00:00:00.0000, -2.973009117671344E+07, -4.088003465608585E+08, -3.025126436140788E+07,
2460035.500000000, A.D. 2023-Apr-01 00:00:00.0000, -1.926816816133235E+07, -4.066746314404853E+08, -3.008664003572169E+07,
2460042.500000000, A.D. 2023-Apr-08 00:00:00.0000, -8.792556062186569E+06, -4.042587700893718E+08, -2.990054737488896E+07,
2460049.500000000, A.D. 2023-Apr-15 00:00:00.0000, 1.689404304047506E+06, -4.015485057475500E+08, -2.969267722930285E+07,
2460056.500000000, A.D. 2023-Apr-22 00:00:00.0000, 1.217005482058551E+07, -3.985396442882423E+08, -2.946272517422113E+07,
2460063.500000000, A.D. 2023-Apr-29 00:00:00.0000, 2.264140793306062E+07, -3.952280696296564E+08, -2.921039269407538E+07,
2460070.500000000, A.D. 2023-May-06 00:00:00.0000, 3.309513494790806E+07, -3.916097592360625E+08, -2.893538840646315E+07,
2460077.500000000, A.D. 2023-May-13 00:00:00.0000, 4.352255386921302E+07, -3.876808007050242E+08, -2.863742931691256E+07,
2460084.500000000, A.D. 2023-May-20 00:00:00.0000, 5.391461710179132E+07, -3.834374100379804E+08, -2.831624217396757E+07,
2460091.500000000, A.D. 2023-May-27 00:00:00.0000, 6.426189932334278E+07, -3.788759517317808E+08, -2.797156495289508E+07,
2460098.500000000, A.D. 2023-Jun-03 00:00:00.0000, 7.455458571035747E+07, -3.739929607739533E+08, -2.760314847945678E+07,
2460105.500000000, A.D. 2023-Jun-10 00:00:00.0000, 8.478246068897006E+07, -3.687851666638749E+08, -2.721075820545679E+07,
2460112.500000000, A.D. 2023-Jun-17 00:00:00.0000, 9.493489746945219E+07, -3.632495196277273E+08, -2.679417615755814E+07,
2460119.500000000, A.D. 2023-Jun-24 00:00:00.0000, 1.050008488769225E+08, -3.573832190772148E+08, -2.635320309228779E+07,
2460126.500000000, A.D. 2023-Jul-01 00:00:00.0000, 1.149688399478485E+08, -3.511837435835323E+08, -2.588766082019389E+07,
2460133.500000000, A.D. 2023-Jul-08 00:00:00.0000, 1.248269608602291E+08, -3.446488816330099E+08, -2.539739448479442E+07,
2460140.500000000, A.D. 2023-Jul-15 00:00:00.0000, 1.345628591902455E+08, -3.377767660658837E+08, -2.488227491541640E+07,
$$EOE